NORAD_CAT_ID,OBJECT_NAME,OBJECT_TYPE,EPOCH,MEAN_MOTION,ECCENTRICITY,INCLINATION,RA_OF_ASC_NODE,ARG_OF_PERICENTER,MEAN_ANOMALY,BSTAR,MEAN_MOTION_DOT,MEAN_MOTION_DDOT,TLE_LINE0,TLE_LINE1,TLE_LINE2,SEMIMAJOR_AXIS,PERIOD,APOGEE,PERIGEE,DECAYED
55954.0,STARLINK-5892,PAYLOAD,2023-04-04 08:00:01,15.70607213,0.0003797,69.9951,131.6662,273.6095,237.2061,-0.0073235,-0.00822551,0.0,0 STARLINK-5892,1 55954U 23037AS  23094.33335648 -.00822551  00000-0 -73235-2 0  9993,2 55954  69.9951 131.6662 0003797 273.6095 237.2061 15.70607213  3288,6735.297,91.684,359.72,354.605,0.0
55954.0,STARLINK-5892,PAYLOAD,2023-04-04 14:00:01,15.7000271,0.0003783,69.9958,130.9625,276.3387,207.3214,-0.0010177,-0.00121242,0.0,0 STARLINK-5892,1 55954U 23037AS  23094.58334491 -.00121242  00000-0 -10177-2 0  9990,2 55954  69.9958 130.9625 0003783 276.3387 207.3214 15.70002710  3329,6737.026,91.72,361.44,356.343,0.0
55954.0,STARLINK-5892,PAYLOAD,2023-04-04 22:00:00,15.69901822,0.00037,69.9967,130.025,270.654,296.3897,0.00048328,0.00058252,0.0,0 STARLINK-5892,1 55954U 23037AS  23094.91667824  .00058252  00000-0  48328-3 0  9994,2 55954  69.9967 130.0250 0003700 270.6540 296.3897 15.69901822  3371,6737.315,91.725,361.673,356.687,0.0
55954.0,STARLINK-5892,PAYLOAD,2023-04-05 14:00:01,15.69917684,0.0003656,69.9991,128.1502,276.6456,97.0897,8.4893e-06,8.08e-06,0.0,0 STARLINK-5892,1 55954U 23037AS  23095.58334491  .00000808  00000-0  84893-5 0  9992,2 55954  69.9991 128.1502 0003656 276.6456  97.0897 15.69917684  1308,6737.27,91.725,361.598,356.671,0.0
55954.0,STARLINK-5892,PAYLOAD,2023-04-05 16:00:00,15.69938687,0.0003593,69.9994,127.9159,275.1281,209.4343,-0.00042025,-0.00050475,0.0,0 STARLINK-5892,1 55954U 23037AS  23095.66667824 -.00050475  00000-0 -42025-3 0  9996,2 55954  69.9994 127.9159 0003593 275.1281 209.4343 15.69938687  3499,6737.209,91.723,361.495,356.654,0.0
55954.0,STARLINK-5892,PAYLOAD,2023-04-05 22:00:00,15.69863569,0.0003632,69.9984,127.2131,268.9553,188.1234,0.00090413,0.00109662,0.0,0 STARLINK-5892,1 55954U 23037AS  23095.91667824  .00109662  00000-0  90413-3 0  9999,2 55954  69.9984 127.2131 0003632 268.9553 188.1234 15.69863569  1303,6737.424,91.728,361.736,356.842,0.0
55954.0,STARLINK-5892,PAYLOAD,2023-04-06 10:00:00,15.69905472,0.0003591,70.0001,125.8072,275.057,126.9928,0.00043718,0.00052646,0.0,0 STARLINK-5892,1 55954U 23037AS  23096.41667824  .00052646  00000-0  43718-3 0  9990,2 55954  70.0001 125.8072 0003591 275.0570 126.9928 15.69905472  3612,6737.304,91.725,361.589,356.75,0.0
55954.0,STARLINK-5892,PAYLOAD,2023-04-06 14:00:01,15.69949993,0.0003598,70.0001,125.3384,273.9557,349.8261,-0.00027983,-0.00033763,0.0,0 STARLINK-5892,1 55954U 23037AS  23096.58335648 -.00033763  00000-0 -27983-3 0  9991,2 55954  70.0001 125.3384 0003598 273.9557 349.8261 15.69949993  1308,6737.177,91.723,361.466,356.618,0.0
55954.0,STARLINK-5892,PAYLOAD,2023-04-06 22:00:00,15.69878291,0.0003488,70.0002,124.4013,264.9523,82.1317,0.00064769,0.00078249,0.0,0 STARLINK-5892,1 55954U 23037AS  23096.91667824  .00078249  00000-0  64769-3 0  9991,2 55954  70.0002 124.4013 0003488 264.9523  82.1317 15.69878291  1300,6737.382,91.727,361.597,356.897,0.0
55954.0,STARLINK-5892,PAYLOAD,2023-04-07 14:00:01,15.69953863,0.0003408,69.9998,122.5271,267.3517,246.3715,-0.00040223,-0.0004836,0.0,0 STARLINK-5892,1 55954U 23037AS  23097.58334491 -.00048360  00000-0 -40223-3 0  9998,2 55954  69.9998 122.5271 0003408 267.3517 246.3715 15.69953863  3798,6737.166,91.722,361.327,356.735,0.0
55954.0,STARLINK-5892,PAYLOAD,2023-04-08 10:45:23,15.6992819,0.000314,69.9997,120.0961,256.2681,103.8165,6.2311e-05,7.287e-05,0.0,0 STARLINK-5892,1 55954U 23037AS  23098.44818542  .00007287  00000-0  62311-4 0  9992,2 55954  69.9997 120.0961 0003140 256.2681 103.8165 15.69928190  3935,6737.239,91.724,361.22,356.989,0.0
55954.0,STARLINK-5892,PAYLOAD,2023-04-08 18:24:08,15.69956118,0.0003461,70.0,119.1997,258.7064,101.3743,0.00023223,0.00027841,0.0,0 STARLINK-5892,1 55954U 23037AS  23098.76676416  .00027841  00000-0  23223-3 0  9995,2 55954  70.0000 119.1997 0003461 258.7064 101.3743 15.69956118  3980,6737.16,91.722,361.356,356.693,0.0
55954.0,STARLINK-5892,PAYLOAD,2023-04-09 00:31:00,15.70312916,0.0007709,70.0001,118.4829,267.6275,92.4038,0.0019502,0.00245441,0.0,0 STARLINK-5892,1 55954U 23037AS  23099.02153482  .00245441  00000-0  19502-2 0  9990,2 55954  70.0001 118.4829 0007709 267.6275  92.4038 15.70312916  4026,6736.139,91.701,363.197,352.811,0.0
55954.0,STARLINK-5892,PAYLOAD,2023-04-09 14:00:01,15.69932814,0.000341,70.0003,116.904,274.6853,19.057,-0.00017218,-0.00020872,0.0,0 STARLINK-5892,1 55954U 23037AS  23099.58334491 -.00020872  00000-0 -17218-3 0  9996,2 55954  70.0003 116.9040 0003410 274.6853  19.0570 15.69932814  4110,6737.226,91.724,361.389,356.794,0.0
55954.0,STARLINK-5892,PAYLOAD,2023-04-09 16:00:00,15.69944436,0.0003374,70.0004,116.6698,273.5775,130.9962,-0.0004315,-0.00051822,0.0,0 STARLINK-5892,1 55954U 23037AS  23099.66667824 -.00051822  00000-0 -43150-3 0  9997,2 55954  70.0004 116.6698 0003374 273.5775 130.9962 15.69944436  1306,6737.193,91.723,361.331,356.785,0.0
55954.0,STARLINK-5892,PAYLOAD,2023-04-10 04:02:41,15.69924372,0.0003516,70.0018,115.2602,283.8003,76.2801,0.00026033,0.00031207,0.0,0 STARLINK-5892,1 55954U 23037AS  23100.16853544  .00031207  00000-0  26033-3 0  9995,2 55954  70.0018 115.2602 0003516 283.8003  76.2801 15.69924372  4200,6737.25,91.724,361.484,356.747,0.0
55954.0,STARLINK-5892,PAYLOAD,2023-04-10 13:13:12,15.69930651,0.0003879,70.0013,114.1862,276.9281,83.1474,0.0001027,0.00012158,0.0,0 STARLINK-5892,1 55954U 23037AS  23100.55083560  .00012158  00000-0  10270-3 0  9991,2 55954  70.0013 114.1862 0003879 276.9281  83.1474 15.69930651  4260,6737.232,91.724,361.711,356.484,0.0
55954.0,STARLINK-5892,PAYLOAD,2023-04-10 17:48:27,15.6992061,0.0003714,70.0001,113.6483,270.6458,89.4312,0.00014442,0.00017187,0.0,0 STARLINK-5892,1 55954U 23037AS  23100.74198756  .00017187  00000-0  14442-3 0  9998,2 55954  70.0001 113.6483 0003714 270.6458  89.4312 15.69920610  3954,6737.261,91.724,361.628,356.624,0.0
55954.0,STARLINK-5892,PAYLOAD,2023-04-11 02:58:58,15.69916963,0.000379,70.001,112.5727,267.7487,92.3275,-5.9398e-06,-9.27e-06,0.0,0 STARLINK-5892,1 55954U 23037AS  23101.12428873 -.00000927  00000-0 -59398-5 0  9994,2 55954  70.0010 112.5727 0003790 267.7487  92.3275 15.69916963  4358,6737.272,91.725,361.69,356.583,0.0
55954.0,STARLINK-5892,PAYLOAD,2023-04-11 12:09:29,15.69924905,0.0003446,70.0002,111.4962,270.0787,90.0014,1.9798e-05,2.168e-05,0.0,0 STARLINK-5892,1 55954U 23037AS  23101.50658816  .00002168  00000-0  19798-4 0  9994,2 55954  70.0002 111.4962 0003446 270.0787  90.0014 15.69924905  4076,6737.249,91.724,361.436,356.792,0.0
55954.0,STARLINK-5892,PAYLOAD,2023-04-11 18:16:29,15.69929274,0.0002944,70.0023,110.7828,276.2577,83.8283,4.4938e-05,5.195e-05,0.0,0 STARLINK-5892,1 55954U 23037AS  23101.76145623  .00005195  00000-0  44938-4 0  9996,2 55954  70.0023 110.7828 0002944 276.2577  83.8283 15.69929274  4116,6737.236,91.724,361.085,357.118,0.0
55954.0,STARLINK-5892,PAYLOAD,2023-04-12 09:34:01,15.69924306,0.0003147,70.0011,108.9903,269.9535,90.13,2.479e-05,2.769e-05,0.0,0 STARLINK-5892,1 55954U 23037AS  23102.39862398  .00002769  00000-0  24790-4 0  9999,2 55954  70.0011 108.9903 0003147 269.9535  90.1300 15.69924306  4555,6737.251,91.724,361.236,356.995,0.0
55954.0,STARLINK-5892,PAYLOAD,2023-04-13 10:02:03,15.6991444,0.0002326,70.0017,106.1233,294.5909,65.5044,-1.5871e-05,-2.119e-05,0.0,0 STARLINK-5892,1 55954U 23037AS  23103.41809740 -.00002119  00000-0 -15871-4 0  9996,2 55954  70.0017 106.1233 0002326 294.5909  65.5044 15.69914440  4373,6737.279,91.725,360.711,357.577,0.0
55954.0,STARLINK-5892,PAYLOAD,2023-04-13 17:40:48,15.69924414,0.0002898,70.0015,105.2281,273.8588,86.2277,2.8826e-05,3.255e-05,0.0,0 STARLINK-5892,1 55954U 23037AS  23103.73667640  .00003255  00000-0  28826-4 0  9996,2 55954  70.0015 105.2281 0002898 273.8588  86.2277 15.69924414  4764,6737.25,91.724,361.068,357.163,0.0
55954.0,STARLINK-5892,PAYLOAD,2023-04-14 08:58:19,15.69946169,0.0003008,70.0032,103.4397,270.242,89.8431,0.00013479,0.0001604,0.0,0 STARLINK-5892,1 55954U 23037AS  23104.37383756  .00016040  00000-0  13479-3 0  9993,2 55954  70.0032 103.4397 0003008 270.2420  89.8431 15.69946169  4527,6737.188,91.723,361.08,357.026,0.0
55954.0,STARLINK-5892,PAYLOAD,2023-04-15 06:22:51,15.69929251,0.0003159,70.0019,100.9307,266.9601,93.1233,4.4253e-05,5.113e-05,0.0,0 STARLINK-5892,1 55954U 23037AS  23105.26587355  .00005113  00000-0  44253-4 0  9997,2 55954  70.0019 100.9307 0003159 266.9601  93.1233 15.69929251  5000,6737.236,91.724,361.23,356.973,0.0
55954.0,STARLINK-5892,PAYLOAD,2023-04-15 09:26:22,15.69900928,0.0002547,70.0024,100.5711,271.9226,88.1678,-7.3328e-05,-9.01e-05,0.0,0 STARLINK-5892,1 55954U 23037AS  23105.39331552 -.00009010  00000-0 -73328-4 0  9994,2 55954  70.0024 100.5711 0002547 271.9226  88.1678 15.69900928  4680,6737.317,91.726,360.898,357.466,0.0
55954.0,STARLINK-5892,PAYLOAD,2023-04-15 17:05:07,15.6992799,0.0003451,70.0006,99.6756,272.2436,87.8364,3.5498e-05,4.058e-05,0.0,0 STARLINK-5892,1 55954U 23037AS  23105.71189155  .00004058  00000-0  35498-4 0  9991,2 55954  70.0006  99.6756 0003451 272.2436  87.8364 15.69927990  4731,6737.24,91.724,361.43,356.78,0.0
55954.0,STARLINK-5892,PAYLOAD,2023-04-16 08:22:38,15.69935426,0.0003217,70.0019,97.8846,273.5532,86.5296,0.00011204,0.00013286,0.0,0 STARLINK-5892,1 55954U 23037AS  23106.34906039  .00013286  00000-0  11204-3 0  9990,2 55954  70.0019  97.8846 0003217 273.5532  86.5296 15.69935426  4830,6737.219,91.724,361.251,356.916,0.0
55954.0,STARLINK-5892,PAYLOAD,2023-04-17 05:47:10,15.69933372,0.000304,70.0017,95.3782,262.5953,97.4897,4.3469e-05,5.019e-05,0.0,0 STARLINK-5892,1 55954U 23037AS  23107.24109299  .00005019  00000-0  43469-4 0  9997,2 55954  70.0017  95.3782 0003040 262.5953  97.4897 15.69933372  5319,6737.225,91.724,361.138,357.042,0.0
